COSMOS 2550             
1 48865U 21056A   25316.99139666  .00005432  00000+0  17073-3 0  9995
2 48865  67.1443  33.9705 0008403 270.3174  89.7017 15.33843466245561
CZ-2C R/B               
1 52794U 22058K   25316.65123870  .00045930  00000+0  87369-3 0  9999
2 52794  50.1901 196.7548 0048843  73.5572 287.0755 15.46413621191975
GSLV R/B                
1 54149U 22138AN  25316.42106097  .00007690  00000+0  68264-3 0  9995
2 54149  87.3848 205.6212 0019977 212.1645 147.8369 14.95891990166393
XRISM                   
1 57800U 23137A   25316.69394894  .00011996  00000+0  71608-3 0  9995
2 57800  31.0030 319.4718 0008092 300.3525  59.6313 15.09882717120085
ACS3                    
1 59588U 24077B   25316.90689509  .00027990  00000+0  25017-1 0  9990
2 59588  97.3098 279.1363 0055416  25.1724 335.2119 13.83559509 78014
