CCSDS_OMM_VERS = 2.0
CREATION_DATE  = 
ORIGINATOR     = 

OBJECT_NAME    = COSMOS 2550
OBJECT_ID      = 2021-056A
CENTER_NAME    = EARTH
REF_FRAME      = TEME
TIME_SYSTEM    = UTC
MEAN_ELEMENT_THEORY = SGP/SGP4

EPOCH          = 2025-11-12T23:47:36.671424
MEAN_MOTION    = 15.33843466
ECCENTRICITY   = .00084037
INCLINATION    = 67.1443
RA_OF_ASC_NODE = 33.9705
ARG_OF_PERICENTER = 270.3174
MEAN_ANOMALY   = 89.7017

EPHEMERIS_TYPE = 0
CLASSIFICATION_TYPE = U
NORAD_CAT_ID   = 48865
ELEMENT_SET_NO = 999
REV_AT_EPOCH   = 24556
BSTAR          = .17072805E-3
MEAN_MOTION_DOT = .5432E-4
MEAN_MOTION_DDOT = 0

CCSDS_OMM_VERS = 2.0
CREATION_DATE  = 
ORIGINATOR     = 

OBJECT_NAME    = CZ-2C R/B
OBJECT_ID      = 2022-058K
CENTER_NAME    = EARTH
REF_FRAME      = TEME
TIME_SYSTEM    = UTC
MEAN_ELEMENT_THEORY = SGP/SGP4

EPOCH          = 2025-11-12T15:37:47.023680
MEAN_MOTION    = 15.46413621
ECCENTRICITY   = .00488439
INCLINATION    = 50.1901
RA_OF_ASC_NODE = 196.7548
ARG_OF_PERICENTER = 73.5572
MEAN_ANOMALY   = 287.0755

EPHEMERIS_TYPE = 0
CLASSIFICATION_TYPE = U
NORAD_CAT_ID   = 52794
ELEMENT_SET_NO = 999
REV_AT_EPOCH   = 19197
BSTAR          = .87369397E-3
MEAN_MOTION_DOT = .4593E-3
MEAN_MOTION_DDOT = 0

CCSDS_OMM_VERS = 2.0
CREATION_DATE  = 
ORIGINATOR     = 

OBJECT_NAME    = GSLV R/B
OBJECT_ID      = 2022-138AN
CENTER_NAME    = EARTH
REF_FRAME      = TEME
TIME_SYSTEM    = UTC
MEAN_ELEMENT_THEORY = SGP/SGP4

EPOCH          = 2025-11-12T10:06:19.667808
MEAN_MOTION    = 14.95891990
ECCENTRICITY   = .00199777
INCLINATION    = 87.3848
RA_OF_ASC_NODE = 205.6212
ARG_OF_PERICENTER = 212.1645
MEAN_ANOMALY   = 147.8369

EPHEMERIS_TYPE = 0
CLASSIFICATION_TYPE = U
NORAD_CAT_ID   = 54149
ELEMENT_SET_NO = 999
REV_AT_EPOCH   = 16639
BSTAR          = .68263893E-3
MEAN_MOTION_DOT = .769E-4
MEAN_MOTION_DDOT = 0

CCSDS_OMM_VERS = 2.0
CREATION_DATE  = 
ORIGINATOR     = 

OBJECT_NAME    = XRISM
OBJECT_ID      = 2023-137A
CENTER_NAME    = EARTH
REF_FRAME      = TEME
TIME_SYSTEM    = UTC
MEAN_ELEMENT_THEORY = SGP/SGP4

EPOCH          = 2025-11-12T16:39:17.188416
MEAN_MOTION    = 15.09882717
ECCENTRICITY   = .00080929
INCLINATION    = 31.0030
RA_OF_ASC_NODE = 319.4718
ARG_OF_PERICENTER = 300.3525
MEAN_ANOMALY   = 59.6313

EPHEMERIS_TYPE = 0
CLASSIFICATION_TYPE = U
NORAD_CAT_ID   = 57800
ELEMENT_SET_NO = 999
REV_AT_EPOCH   = 12008
BSTAR          = .71607712E-3
MEAN_MOTION_DOT = .11996E-3
MEAN_MOTION_DDOT = 0

CCSDS_OMM_VERS = 2.0
CREATION_DATE  = 
ORIGINATOR     = 

OBJECT_NAME    = ACS3
OBJECT_ID      = 2024-077B
CENTER_NAME    = EARTH
REF_FRAME      = TEME
TIME_SYSTEM    = UTC
MEAN_ELEMENT_THEORY = SGP/SGP4

EPOCH          = 2025-11-12T21:45:55.735776
MEAN_MOTION    = 13.83559509
ECCENTRICITY   = .00554166
INCLINATION    = 97.3098
RA_OF_ASC_NODE = 279.1363
ARG_OF_PERICENTER = 25.1724
MEAN_ANOMALY   = 335.2119

EPHEMERIS_TYPE = 0
CLASSIFICATION_TYPE = U
NORAD_CAT_ID   = 59588
ELEMENT_SET_NO = 999
REV_AT_EPOCH   = 7801
BSTAR          = .25016543E-1
MEAN_MOTION_DOT = .2799E-3
MEAN_MOTION_DDOT = 0

